[{"OBJECT_NAME":"UHETSAT","OBJECT_ID":"2023-185E","EPOCH":"2026-03-09T22:39:26.455680","MEAN_MOTION":15.29797662,"ECCENTRICITY":0.00118435,"INCLINATION":97.3584,"RA_OF_ASC_NODE":137.3576,"ARG_OF_PERICENTER":307.7346,"MEAN_ANOMALY":52.2821,"EPHEMERIS_TYPE":0,"CLASSIFICATION_TYPE":"U","NORAD_CAT_ID":58466,"ELEMENT_SET_NO":999,"REV_AT_EPOCH":12611,"BSTAR":0.00030513019,"MEAN_MOTION_DOT":8.749e-5,"MEAN_MOTION_DDOT":0},{"OBJECT_NAME":"STARLINK-34173","OBJECT_ID":"2025-113AC","EPOCH":"2026-03-09T06:56:50.123328","MEAN_MOTION":15.30190549,"ECCENTRICITY":0.00012565,"INCLINATION":53.1578,"RA_OF_ASC_NODE":93.001,"ARG_OF_PERICENTER":99.243,"MEAN_ANOMALY":260.8713,"EPHEMERIS_TYPE":0,"CLASSIFICATION_TYPE":"U","NORAD_CAT_ID":64196,"ELEMENT_SET_NO":999,"REV_AT_EPOCH":4500,"BSTAR":0.00040088068,"MEAN_MOTION_DOT":0.00011529,"MEAN_MOTION_DDOT":0}]
